{"fetched_at":"2026-07-12T17:32:27.314Z","source":"https://celestrak.org/NORAD/elements/gp.php?GROUP=spire&FORMAT=JSON","constellation":"spire","records":[{"OBJECT_NAME":"LEMUR-2-HUBBLE-4","OBJECT_ID":"2025-135AP","EPOCH":"2026-07-12T06:15:17.091936","CLASSIFICATION_TYPE":"U","MEAN_MOTION":14.93680043,"ECCENTRICITY":0.000244,"INCLINATION":97.7716,"RA_OF_ASC_NODE":306.8753,"ARG_OF_PERICENTER":170.3654,"MEAN_ANOMALY":189.7613,"EPHEMERIS_TYPE":0,"NORAD_CAT_ID":64565,"ELEMENT_SET_NO":999,"REV_AT_EPOCH":5761,"BSTAR":0.00011088,"MEAN_MOTION_DOT":0.00001116,"MEAN_MOTION_DDOT":0},{"OBJECT_NAME":"LEMUR-2-SEJONG-2","OBJECT_ID":"2025-135BL","EPOCH":"2026-07-12T13:47:11.694624","CLASSIFICATION_TYPE":"U","MEAN_MOTION":14.96899533,"ECCENTRICITY":0.0003782,"INCLINATION":97.7704,"RA_OF_ASC_NODE":308.4268,"ARG_OF_PERICENTER":231.1965,"MEAN_ANOMALY":128.8919,"EPHEMERIS_TYPE":0,"NORAD_CAT_ID":64586,"ELEMENT_SET_NO":999,"REV_AT_EPOCH":5774,"BSTAR":0.00018494,"MEAN_MOTION_DOT":0.00002064,"MEAN_MOTION_DDOT":0},{"OBJECT_NAME":"LEMUR-2-HUBBLE-5","OBJECT_ID":"2025-135BT","EPOCH":"2026-07-12T06:29:30.088032","CLASSIFICATION_TYPE":"U","MEAN_MOTION":14.94208283,"ECCENTRICITY":0.0004192,"INCLINATION":97.7737,"RA_OF_ASC_NODE":307.5509,"ARG_OF_PERICENTER":247.2369,"MEAN_ANOMALY":112.8409,"EPHEMERIS_TYPE":0,"NORAD_CAT_ID":64840,"ELEMENT_SET_NO":999,"REV_AT_EPOCH":5765,"BSTAR":0.00011093,"MEAN_MOTION_DOT":0.00001131,"MEAN_MOTION_DDOT":0},{"OBJECT_NAME":"LEMUR-2-KARENDARRELL","OBJECT_ID":"2025-135BU","EPOCH":"2026-07-12T09:29:41.897184","CLASSIFICATION_TYPE":"U","MEAN_MOTION":15.0047467,"ECCENTRICITY":0.0012127,"INCLINATION":97.7707,"RA_OF_ASC_NODE":309.5687,"ARG_OF_PERICENTER":112.8315,"MEAN_ANOMALY":247.419,"EPHEMERIS_TYPE":0,"NORAD_CAT_ID":64841,"ELEMENT_SET_NO":999,"REV_AT_EPOCH":5779,"BSTAR":0.0003488,"MEAN_MOTION_DOT":0.00004338,"MEAN_MOTION_DDOT":0},{"OBJECT_NAME":"LEMUR-2-LUCILLE-ROSE","OBJECT_ID":"2025-135BV","EPOCH":"2026-07-11T20:03:12.003840","CLASSIFICATION_TYPE":"U","MEAN_MOTION":15.00464612,"ECCENTRICITY":0.00144668,"INCLINATION":97.7712,"RA_OF_ASC_NODE":309.0456,"ARG_OF_PERICENTER":199.4062,"MEAN_ANOMALY":160.6612,"EPHEMERIS_TYPE":0,"NORAD_CAT_ID":65403,"ELEMENT_SET_NO":999,"REV_AT_EPOCH":5233,"BSTAR":0.0003073791,"MEAN_MOTION_DOT":0.00003816,"MEAN_MOTION_DDOT":0},{"OBJECT_NAME":"LEMUR-2-AFFIE-WAUWIE","OBJECT_ID":"2025-248C","EPOCH":"2026-07-12T10:16:00.043392","CLASSIFICATION_TYPE":"U","MEAN_MOTION":15.28172277,"ECCENTRICITY":0.0008725,"INCLINATION":45.3911,"RA_OF_ASC_NODE":338.1335,"ARG_OF_PERICENTER":238.0839,"MEAN_ANOMALY":121.9202,"EPHEMERIS_TYPE":0,"NORAD_CAT_ID":66295,"ELEMENT_SET_NO":999,"REV_AT_EPOCH":3845,"BSTAR":0.00045878,"MEAN_MOTION_DOT":0.00012562,"MEAN_MOTION_DDOT":0},{"OBJECT_NAME":"OTTER SDM","OBJECT_ID":"2025-276N","EPOCH":"2026-07-12T04:49:12.998496","CLASSIFICATION_TYPE":"U","MEAN_MOTION":15.20034932,"ECCENTRICITY":0.00042402,"INCLINATION":97.421,"RA_OF_ASC_NODE":266.2646,"ARG_OF_PERICENTER":268.1515,"MEAN_ANOMALY":91.9235,"EPHEMERIS_TYPE":0,"NORAD_CAT_ID":66678,"ELEMENT_SET_NO":999,"REV_AT_EPOCH":3421,"BSTAR":0.0001761888,"MEAN_MOTION_DOT":0.00003731,"MEAN_MOTION_DDOT":0},{"OBJECT_NAME":"LEMUR-2-STAS-GORBUK","OBJECT_ID":"2025-276W","EPOCH":"2026-07-11T18:15:12.905856","CLASSIFICATION_TYPE":"U","MEAN_MOTION":15.19636638,"ECCENTRICITY":0.00034497,"INCLINATION":97.4242,"RA_OF_ASC_NODE":265.8836,"ARG_OF_PERICENTER":265.6939,"MEAN_ANOMALY":94.3901,"EPHEMERIS_TYPE":0,"NORAD_CAT_ID":66686,"ELEMENT_SET_NO":999,"REV_AT_EPOCH":3414,"BSTAR":0.0001630158,"MEAN_MOTION_DOT":0.00003406,"MEAN_MOTION_DDOT":0},{"OBJECT_NAME":"LEMUR-2-TEODOR","OBJECT_ID":"2025-276DG","EPOCH":"2026-07-12T10:34:51.521376","CLASSIFICATION_TYPE":"U","MEAN_MOTION":15.21318646,"ECCENTRICITY":0.0002274,"INCLINATION":97.4147,"RA_OF_ASC_NODE":266.8209,"ARG_OF_PERICENTER":90.2746,"MEAN_ANOMALY":269.8751,"EPHEMERIS_TYPE":0,"NORAD_CAT_ID":66768,"ELEMENT_SET_NO":999,"REV_AT_EPOCH":3428,"BSTAR":0.00014389,"MEAN_MOTION_DOT":0.00003151,"MEAN_MOTION_DDOT":0},{"OBJECT_NAME":"LEMUR-2-LAILA","OBJECT_ID":"2025-276DQ","EPOCH":"2026-07-12T03:33:09.397152","CLASSIFICATION_TYPE":"U","MEAN_MOTION":15.21543038,"ECCENTRICITY":0.00029124,"INCLINATION":97.4171,"RA_OF_ASC_NODE":266.6695,"ARG_OF_PERICENTER":98.7962,"MEAN_ANOMALY":261.3604,"EPHEMERIS_TYPE":0,"NORAD_CAT_ID":66776,"ELEMENT_SET_NO":999,"REV_AT_EPOCH":3424,"BSTAR":0.00016782051,"MEAN_MOTION_DOT":0.00003711,"MEAN_MOTION_DDOT":0},{"OBJECT_NAME":"LEMUR-2-CELIJO-SB-PK","OBJECT_ID":"2025-276DW","EPOCH":"2026-07-12T10:48:29.285280","CLASSIFICATION_TYPE":"U","MEAN_MOTION":15.00268971,"ECCENTRICITY":0.0007162,"INCLINATION":97.5201,"RA_OF_ASC_NODE":263.3941,"ARG_OF_PERICENTER":70.855,"MEAN_ANOMALY":289.3449,"EPHEMERIS_TYPE":0,"NORAD_CAT_ID":66781,"ELEMENT_SET_NO":999,"REV_AT_EPOCH":2641,"BSTAR":0.00026342,"MEAN_MOTION_DOT":0.00003243,"MEAN_MOTION_DDOT":0},{"OBJECT_NAME":"LEMUR-2-FINNIAN","OBJECT_ID":"2025-276DX","EPOCH":"2026-07-12T00:30:26.735328","CLASSIFICATION_TYPE":"U","MEAN_MOTION":15.00597128,"ECCENTRICITY":0.00076527,"INCLINATION":97.5365,"RA_OF_ASC_NODE":263.2359,"ARG_OF_PERICENTER":11.2352,"MEAN_ANOMALY":348.9042,"EPHEMERIS_TYPE":0,"NORAD_CAT_ID":66782,"ELEMENT_SET_NO":999,"REV_AT_EPOCH":2372,"BSTAR":0.00014434302,"MEAN_MOTION_DOT":0.00001766,"MEAN_MOTION_DDOT":0},{"OBJECT_NAME":"LEMUR-2-STARLIGHT","OBJECT_ID":"2025-276DY","EPOCH":"2026-07-12T03:10:51.532896","CLASSIFICATION_TYPE":"U","MEAN_MOTION":14.993314,"ECCENTRICITY":0.00148193,"INCLINATION":97.5233,"RA_OF_ASC_NODE":262.9182,"ARG_OF_PERICENTER":56.3195,"MEAN_ANOMALY":303.944,"EPHEMERIS_TYPE":0,"NORAD_CAT_ID":66783,"ELEMENT_SET_NO":999,"REV_AT_EPOCH":3393,"BSTAR":0.00032198496,"MEAN_MOTION_DOT":0.00003887,"MEAN_MOTION_DDOT":0},{"OBJECT_NAME":"LEMUR-2-TARTIFLETTE","OBJECT_ID":"2025-276DZ","EPOCH":"2026-07-12T03:08:30.788160","CLASSIFICATION_TYPE":"U","MEAN_MOTION":14.99317762,"ECCENTRICITY":0.00138511,"INCLINATION":97.5237,"RA_OF_ASC_NODE":262.9245,"ARG_OF_PERICENTER":64.3329,"MEAN_ANOMALY":295.9324,"EPHEMERIS_TYPE":0,"NORAD_CAT_ID":66784,"ELEMENT_SET_NO":999,"REV_AT_EPOCH":3393,"BSTAR":0.00029474152,"MEAN_MOTION_DOT":0.00003551,"MEAN_MOTION_DDOT":0},{"OBJECT_NAME":"LEMUR-2-VUKASIN","OBJECT_ID":"2025-276EA","EPOCH":"2026-07-12T10:29:30.649920","CLASSIFICATION_TYPE":"U","MEAN_MOTION":15.00531099,"ECCENTRICITY":0.000347,"INCLINATION":97.5237,"RA_OF_ASC_NODE":263.5744,"ARG_OF_PERICENTER":63.1538,"MEAN_ANOMALY":297.0041,"EPHEMERIS_TYPE":0,"NORAD_CAT_ID":66785,"ELEMENT_SET_NO":999,"REV_AT_EPOCH":3393,"BSTAR":0.00021885,"MEAN_MOTION_DOT":0.00002702,"MEAN_MOTION_DDOT":0},{"OBJECT_NAME":"LEMUR-2-HOTSPUR-TOM","OBJECT_ID":"2025-276EB","EPOCH":"2026-07-11T17:23:30.411456","CLASSIFICATION_TYPE":"U","MEAN_MOTION":14.99219626,"ECCENTRICITY":0.00138345,"INCLINATION":97.5223,"RA_OF_ASC_NODE":262.5077,"ARG_OF_PERICENTER":56.6609,"MEAN_ANOMALY":303.5937,"EPHEMERIS_TYPE":0,"NORAD_CAT_ID":66786,"ELEMENT_SET_NO":999,"REV_AT_EPOCH":3380,"BSTAR":0.00026466452,"MEAN_MOTION_DOT":0.00003174,"MEAN_MOTION_DDOT":0}]}
